BY70-2                  
1 45857U 20042B   24106.59415822  .00098696  00000+0  52326-2 0  9993
2 45857  97.9082 196.8154 0003806  93.4828 266.6838 15.14924327205027
SALSAT                  
1 46495U 20068K   24106.42888373  .00010151  00000+0  59481-3 0  9997
2 46495  97.8112  64.2201 0014745 160.7728 199.4061 15.11907670194826
RADFXSAT-2 (AO-109)     
1 47311U 21002C   24105.88959965  .00899582  40944-3  15434-2 0  9996
2 47311  60.6587 305.3061 0004015 101.0644 259.0931 16.02115824181384
UVSQ-SAT                
1 47438U 21006AB  24106.12834837  .00051513  00000+0  12601-2 0  9990
2 47438  97.3343 166.0698 0007926  91.2759 268.9396 15.40594892179007
LEDSAT                  
1 49069U 21073D   24106.13690979  .00020468  00000+0  89052-3 0  9994
2 49069  97.4414 177.7951 0021542 144.1680 216.1006 15.22063684146851
XW-3 (CAS-9)            
1 50466U 21131B   24106.57170839  .00001126  00000+0  37534-3 0  9996
2 50466  98.5274 191.9431 0003245 325.3524  34.7452 14.39482466120997
TEVEL-3                 
1 50988U 22002E   24106.53879359  .00099993  00000+0  17546-2 0  9991
2 50988  97.3847 180.0628 0005346 213.7934 146.2977 15.50172813125290
TEVEL-8                 
1 50989U 22002F   24106.57458957  .00099204  00000+0  17483-2 0  9998
2 50989  97.3868 180.1874 0005359 214.1333 145.9574 15.50052983125294
TEVEL-5                 
1 50998U 22002Q   24106.58755220  .00115015  00000+0  18096-2 0  9992
2 50998  97.3835 181.1440 0005995 208.0323 152.0608 15.53179683125371
TEVEL-6                 
1 50999U 22002R   24106.46163802  .00110274  00000+0  17444-2 0  9997
2 50999  97.3828 180.9915 0005931 207.7657 152.3280 15.53047491125352
TEVEL-1                 
1 51013U 22002AF  24106.56311812  .00100734  00000+0  17755-2 0  9997
2 51013  97.3843 179.9635 0005358 213.2196 146.8719 15.50043252125293
TEVEL-7                 
1 51062U 22002CG  24106.56629284  .00100554  00000+0  17652-2 0  9992
2 51062  97.3860 180.1532 0005417 212.7936 147.2980 15.50158317125292
TEVEL-4                 
1 51063U 22002CH  24106.46660025  .00096013  00000+0  17044-2 0  9999
2 51063  97.3860 179.9724 0005444 212.0646 148.0274 15.49857967125271
TEVEL-2                 
1 51069U 22002CP  24106.53758104  .00102139  00000+0  17893-2 0  9998
2 51069  97.3845 180.0292 0005338 213.0431 147.0487 15.50211567125297
GREENCUBE               
1 53106U 22080B   24099.70722617 -.00000003  00000+0  00000+0 0  9995
2 53106  70.1414 216.6532 0008047 121.1128 239.0321  6.42557348 40800
KUZBASS-300 (RS34S)     
1 53375U 22096F   24106.56764238  .00275262  00000+0  16228-2 0  9990
2 53375  97.3857  25.3559 0006710 115.8673 244.3286 15.77384808 94641
UTMN (RS23S)            
1 53376U 22096G   24106.41953348  .00366530  00000+0  15950-2 0  9997
2 53376  97.3831  26.1206 0007155 127.4060 232.7862 15.83825125 94689
MIET-AIS (RS28S)        
1 53377U 22096H   24106.59869670  .00174128  00000+0  14749-2 0  9996
2 53377  97.3903  24.4632 0005320 114.2678 245.9140 15.69145049 94583
KAI-1 (RS26S)           
1 53378U 22096J   24106.56214374  .00079156  00000+0  10697-2 0  9992
2 53378  97.3976  22.4917 0003813 116.4784 243.6862 15.57482917 94441
ISOI (RS19S)            
1 53381U 22096M   24106.44364966  .00190653  00000+0  14797-2 0  9997
2 53381  97.3927  25.1225 0005332 102.3621 257.8239 15.71213194 94614
CUBESX-HSE-2 (RS21S)    
1 53383U 22096P   24106.41887627  .00341449  00000+0  15754-2 0  9995
2 53383  97.3831  26.3003 0006640 113.0843 247.1127 15.82636901 94698
SIREN (RS30S)           
1 53384U 22096Q   24106.61331087  .00120000  00000+0  12582-2 0  9996
2 53384  97.3941  24.0217 0004536  87.5365 272.6413 15.63988008 94552
CAS-5A (FO-118)         
1 54684U 22167C   24106.60233649  .00032035  00000+0  12483-2 0  9993
2 54684  97.5975 250.1698 0009971   6.0088 354.1268 15.25857234 74743
STRATOSAT-TK 1 (RS52S)  
1 57167U 23091B   24106.58429777  .00017188  00000+0  10594-2 0  9998
2 57167  97.6183 159.9117 0014617 337.8506  22.2090 15.09936048 44105
UMKA 1 (RS40S)          
1 57172U 23091G   24106.58929960  .00006701  00000+0  45606-3 0  9995
2 57172  97.6186 159.2905 0016127 340.2926  19.7676 15.06528360 44061
CUBESX-HSE 3 (RS42S)    
1 57178U 23091N   24106.59366030  .00009915  00000+0  65542-3 0  9996
2 57178  97.6224 159.5785 0016448 333.9712  26.0687 15.07479390 44070
MONITOR-4 (RS57S)       
1 57182U 23091S   24106.56376848  .00010067  00000+0  67183-3 0  9999
2 57182  97.6208 159.4196 0017020 334.0502  25.9870 15.07114242 44061
MONITOR-2 (RS39S)       
1 57184U 23091U   24106.56015653  .00006547  00000+0  44298-3 0  9995
2 57184  97.6217 159.5967 0013440 328.6655  31.3770 15.06786994 44079
SVYATOBOR 1 (RS60S)     
1 57187U 23091X   24106.57318685  .00008912  00000+0  58284-3 0  9998
2 57187  97.6213 159.8917 0012791 325.8092  34.2311 15.07951287 44093
VIZARD-METEO (RS38S)    
1 57189U 23091Z   24106.58035745  .00010939  00000+0  69379-3 0  9993
2 57189  97.6205 160.1610 0011555 323.5972  36.4470 15.09031313 44114
NANOZOND 1 (RS49S)      
1 57190U 23091AA  24106.54098453  .00016195  00000+0  97444-3 0  9990
2 57190  97.6188 160.4217 0009825 330.1904  29.8764 15.10875951 44138
POLYTECH-UNIVERSE 3 (R*)
1 57191U 23091AB  24106.56142857  .00007380  00000+0  49915-3 0  9997
2 57191  97.6181 159.3176 0019232 345.2368  14.8295 15.06679509 44068
UTMN 2 (RS27S)          
1 57203U 23091AP  24106.55338904  .00010443  00000+0  66907-3 0  9994
2 57203  97.6213 160.0408 0011937 324.4676  35.5756 15.08668119 44104
ARCCUBE 1 (RS25S)       
1 57205U 23091AR  24106.55699298  .00018880  00000+0  11122-2 0  9993
2 57205  97.6160 160.4784 0010127 330.5828  29.4831 15.11606969 44144
KUZGTU 1 (RS47S)        
1 57217U 23091AV  24106.59728442  .00009705  00000+0  64334-3 0  9994
2 57217  97.6202 159.4799 0016416 335.6718  24.3733 15.07382173 44079
HADES-D (SO-121)        
1 58567U 23174CY  24106.18862419  .00049239  00000+0  21062-2 0  9999
2 58567  97.4580 182.0367 0014027  97.8069 262.4760 15.22567584 24172
